{
  "type": "FeatureCollection",
  "features": [
    {
      "type": "Feature",
      "properties": {
        "norad_id": 66809,
        "name": "STARLINK-35979",
        "group": "last-30-days",
        "lat": -13.318619522544514,
        "lon": -120.66202430951435,
        "alt_km": 306.2940554149036,
        "timestamp": "2025-12-12T09:49:07.482663+00:00",
        "meta_object_name": "STARLINK-35979",
        "meta_object_id": "2025-278U",
        "meta_epoch": "2025-12-12T03:52:03.408384",
        "meta_mean_motion": 15.89146237,
        "meta_eccentricity": 0.0001887,
        "meta_inclination": 42.9973,
        "meta_ra_of_asc_node": 255.5931,
        "meta_arg_of_pericenter": 261.9601,
        "meta_mean_anomaly": 98.1059,
        "meta_ephemeris_type": 0,
        "meta_classification_type": "U",
        "meta_norad_cat_id": 66809,
        "meta_element_set_no": 999,
        "meta_rev_at_epoch": 174,
        "meta_bstar": -0.0014285,
        "meta_mean_motion_dot": -0.00407189,
        "meta_mean_motion_ddot": 0,
        "tle_line1": "1 66809U 25278U   25346.16115056 -.00407189  00000+0 -14285-2 0  9990",
        "tle_line2": "2 66809  42.9973 255.5931 0001887 261.9601  98.1059 15.89146237  1744"
      },
      "geometry": {
        "type": "Point",
        "coordinates": [
          -120.66202430951435,
          -13.318619522544514
        ]
      }
    },
    {
      "type": "Feature",
      "properties": {
        "norad_id": 66810,
        "name": "STARLINK-36046",
        "group": "last-30-days",
        "lat": -16.574733928813927,
        "lon": -124.55874519532411,
        "alt_km": 306.3668690342729,
        "timestamp": "2025-12-12T09:49:07.482673+00:00",
        "meta_object_name": "STARLINK-36046",
        "meta_object_id": "2025-278V",
        "meta_epoch": "2025-12-12T03:53:18.546144",
        "meta_mean_motion": 15.89126373,
        "meta_eccentricity": 0.0001884,
        "meta_inclination": 42.9975,
        "meta_ra_of_asc_node": 255.6009,
        "meta_arg_of_pericenter": 267.7565,
        "meta_mean_anomaly": 92.3093,
        "meta_ephemeris_type": 0,
        "meta_classification_type": "U",
        "meta_norad_cat_id": 66810,
        "meta_element_set_no": 999,
        "meta_rev_at_epoch": 174,
        "meta_bstar": -0.0012632,
        "meta_mean_motion_dot": -0.0036159,
        "meta_mean_motion_ddot": 0,
        "tle_line1": "1 66810U 25278V   25346.16202021 -.00361590  00000+0 -12632-2 0  9990",
        "tle_line2": "2 66810  42.9975 255.6009 0001884 267.7565  92.3093 15.89126373  1748"
      },
      "geometry": {
        "type": "Point",
        "coordinates": [
          -124.55874519532411,
          -16.574733928813927
        ]
      }
    },
    {
      "type": "Feature",
      "properties": {
        "norad_id": 66811,
        "name": "STARLINK-36045",
        "group": "last-30-days",
        "lat": -15.260018283662161,
        "lon": -122.95871719760173,
        "alt_km": 308.6063147060495,
        "timestamp": "2025-12-12T09:49:07.482684+00:00",
        "meta_object_name": "STARLINK-36045",
        "meta_object_id": "2025-278W",
        "meta_epoch": "2025-12-12T00:00:04.999104",
        "meta_mean_motion": 15.89249378,
        "meta_eccentricity": 0.0001685,
        "meta_inclination": 42.9977,
        "meta_ra_of_asc_node": 256.5998,
        "meta_arg_of_pericenter": 274.953,
        "meta_mean_anomaly": 240.0592,
        "meta_ephemeris_type": 0,
        "meta_classification_type": "U",
        "meta_norad_cat_id": 66811,
        "meta_element_set_no": 999,
        "meta_rev_at_epoch": 283,
        "meta_bstar": -0.0050614,
        "meta_mean_motion_dot": -0.01334377,
        "meta_mean_motion_ddot": 0,
        "tle_line1": "1 66811U 25278W   25346.00005786 -.01334377  00000+0 -50614-2 0  9999",
        "tle_line2": "2 66811  42.9977 256.5998 0001685 274.9530 240.0592 15.89249378  2837"
      },
      "geometry": {
        "type": "Point",
        "coordinates": [
          -122.95871719760173,
          -15.260018283662161
        ]
      }
    },
    {
      "type": "Feature",
      "properties": {
        "norad_id": 66812,
        "name": "STARLINK-36054",
        "group": "last-30-days",
        "lat": -11.801393103424704,
        "lon": -118.90652871534435,
        "alt_km": 304.96385859779275,
        "timestamp": "2025-12-12T09:49:07.482694+00:00",
        "meta_object_name": "STARLINK-36054",
        "meta_object_id": "2025-278X",
        "meta_epoch": "2025-12-12T02:21:00.979200",
        "meta_mean_motion": 15.8933942,
        "meta_eccentricity": 0.0002188,
        "meta_inclination": 42.9976,
        "meta_ra_of_asc_node": 255.9801,
        "meta_arg_of_pericenter": 296.7029,
        "meta_mean_anomaly": 63.3622,
        "meta_ephemeris_type": 0,
        "meta_classification_type": "U",
        "meta_norad_cat_id": 66812,
        "meta_element_set_no": 999,
        "meta_rev_at_epoch": 173,
        "meta_bstar": -0.0014582,
        "meta_mean_motion_dot": -0.00419205,
        "meta_mean_motion_ddot": 0,
        "tle_line1": "1 66812U 25278X   25346.09792800 -.00419205  00000+0 -14582-2 0  9996",
        "tle_line2": "2 66812  42.9976 255.9801 0002188 296.7029  63.3622 15.89339420  1733"
      },
      "geometry": {
        "type": "Point",
        "coordinates": [
          -118.90652871534435,
          -11.801393103424704
        ]
      }
    },
    {
      "type": "Feature",
      "properties": {
        "norad_id": 66813,
        "name": "STARLINK-36042",
        "group": "last-30-days",
        "lat": -10.493963616826608,
        "lon": -117.41994649990613,
        "alt_km": 305.00114265284174,
        "timestamp": "2025-12-12T09:49:07.482707+00:00",
        "meta_object_name": "STARLINK-36042",
        "meta_object_id": "2025-278Y",
        "meta_epoch": "2025-12-12T02:20:31.803648",
        "meta_mean_motion": 15.89362115,
        "meta_eccentricity": 0.0002059,
        "meta_inclination": 42.9978,
        "meta_ra_of_asc_node": 255.9772,
        "meta_arg_of_pericenter": 288.8135,
        "meta_mean_anomaly": 71.2516,
        "meta_ephemeris_type": 0,
        "meta_classification_type": "U",
        "meta_norad_cat_id": 66813,
        "meta_element_set_no": 999,
        "meta_rev_at_epoch": 173,
        "meta_bstar": -0.001441,
        "meta_mean_motion_dot": -0.00414929,
        "meta_mean_motion_ddot": 0,
        "tle_line1": "1 66813U 25278Y   25346.09759032 -.00414929  00000+0 -14410-2 0  9995",
        "tle_line2": "2 66813  42.9978 255.9772 0002059 288.8135  71.2516 15.89362115  1737"
      },
      "geometry": {
        "type": "Point",
        "coordinates": [
          -117.41994649990613,
          -10.493963616826608
        ]
      }
    },
    {
      "type": "Feature",
      "properties": {
        "norad_id": 66814,
        "name": "STARLINK-35984",
        "group": "last-30-days",
        "lat": -0.041198970093895095,
        "lon": -106.03697005502657,
        "alt_km": 304.8949465554133,
        "timestamp": "2025-12-12T09:49:07.482719+00:00",
        "meta_object_name": "STARLINK-35984",
        "meta_object_id": "2025-278Z",
        "meta_epoch": "2025-12-12T03:47:08.632320",
        "meta_mean_motion": 15.89317549,
        "meta_eccentricity": 0.0002038,
        "meta_inclination": 42.997,
        "meta_ra_of_asc_node": 255.565,
        "meta_arg_of_pericenter": 255.6657,
        "meta_mean_anomaly": 104.3991,
        "meta_ephemeris_type": 0,
        "meta_classification_type": "U",
        "meta_norad_cat_id": 66814,
        "meta_element_set_no": 999,
        "meta_rev_at_epoch": 174,
        "meta_bstar": -0.0014533,
        "meta_mean_motion_dot": -0.00417417,
        "meta_mean_motion_ddot": 0,
        "tle_line1": "1 66814U 25278Z   25346.15773880 -.00417417  00000+0 -14533-2 0  9991",
        "tle_line2": "2 66814  42.9970 255.5650 0002038 255.6657 104.3991 15.89317549  1746"
      },
      "geometry": {
        "type": "Point",
        "coordinates": [
          -106.03697005502657,
          -0.041198970093895095
        ]
      }
    },
    {
      "type": "Feature",
      "properties": {
        "norad_id": 66815,
        "name": "STARLINK-35985",
        "group": "last-30-days",
        "lat": -1.4554935989264892,
        "lon": -107.5505491058514,
        "alt_km": 305.08405669181866,
        "timestamp": "2025-12-12T09:49:07.482730+00:00",
        "meta_object_name": "STARLINK-35985",
        "meta_object_id": "2025-278AA",
        "meta_epoch": "2025-12-12T03:47:39.585984",
        "meta_mean_motion": 15.89290924,
        "meta_eccentricity": 0.0001994,
        "meta_inclination": 42.997,
        "meta_ra_of_asc_node": 255.5676,
        "meta_arg_of_pericenter": 255.8845,
        "meta_mean_anomaly": 104.1808,
        "meta_ephemeris_type": 0,
        "meta_classification_type": "U",
        "meta_norad_cat_id": 66815,
        "meta_element_set_no": 999,
        "meta_rev_at_epoch": 295,
        "meta_bstar": -0.0014372,
        "meta_mean_motion_dot": -0.00412454,
        "meta_mean_motion_ddot": 0,
        "tle_line1": "1 66815U 25278AA  25346.15809706 -.00412454  00000+0 -14372-2 0  9996",
        "tle_line2": "2 66815  42.9970 255.5676 0001994 255.8845 104.1808 15.89290924  2952"
      },
      "geometry": {
        "type": "Point",
        "coordinates": [
          -107.5505491058514,
          -1.4554935989264892
        ]
      }
    }
  ]
}